BEIJING 1               
1 28890U 05043A   23340.15588051  .00000559  00000+0  12074-3 0  9999
2 28890  98.1791  99.7669 0013865 295.8645  64.1127 14.62040630965548
HJ-1A                   
1 33320U 08041A   23340.11799393  .00001761  00000+0  24439-3 0  9997
2 33320  97.6371 351.8265 0019098 286.0282  73.8827 14.78989033821661
HJ-1B                   
1 33321U 08041B   23340.17997986  .00001525  00000+0  20810-3 0  9999
2 33321  97.6360 356.3645 0038101 331.8510  28.0642 14.79535445821685
YAOGAN 4                
1 33446U 08061A   23339.96708702  .00001584  00000+0  22101-3 0  9990
2 33446  97.8655 270.8404 0015164 190.8194 169.2694 14.78994065808844
DEIMOS-1                
1 35681U 09041A   23340.13033153  .00000917  00000+0  15047-3 0  9994
2 35681  97.6754 167.5431 0000658   8.4832 351.6387 14.72860910770740
UK-DMC 2                
1 35683U 09041C   23340.12268498  .00001312  00000+0  21326-3 0  9994
2 35683  97.7533 131.2030 0001301  77.4339 282.7015 14.72645704770446
RISAT 1                 
1 38248U 12017A   23340.00771274  .00008267  00000+0  39396-3 0  9991
2 38248  97.5361 352.3274 0003001 169.9784 190.1510 15.19369840640072
DMC3-FM1                
1 40715U 15032A   23340.16763447  .00001065  00000+0  13697-3 0  9998
2 40715  97.7747 219.4982 0005223 193.5136 166.5939 14.83148330452819
DMC3-FM2                
1 40716U 15032B   23340.19102572  .00001089  00000+0  13992-3 0  9992
2 40716  97.7797 220.4644 0006972 201.0726 159.0202 14.83115139452815
DMC3-FM3                
1 40717U 15032C   23340.14504224  .00001082  00000+0  13895-3 0  9993
2 40717  97.7842 221.5894 0008510 201.0137 159.0729 14.83153341452813
